{
  "norad_id": 61628,
  "name": "STARLINK-32421",
  "history": [
    {
      "epoch": "2026-03-28T13:50:37.365504Z",
      "apogee_km": 484.7107997653784,
      "perigee_km": 481.4585806842115,
      "latitude_deg": 1.16964964123002e-05,
      "longitude_deg": 14.302445997588533,
      "height_km": 483.1654093954711,
      "semi_major_axis_km": 6861.221690224795,
      "eccentricity": 0.000237,
      "inclination_deg": 42.9998,
      "raan_deg": 47.9534,
      "arg_perigee_deg": 259.2477,
      "mean_anomaly_deg": 100.8108,
      "mean_motion_rev_day": 15.27568113
    }
  ]
}